NUSAT-1 (FRESCO)        
1 41557U 16033B   23193.46480498  .00079859  00000+0  87008-3 0  9999
2 41557  97.3887 302.4302 0004220  49.1447 311.0177 15.63143136397571
NUSAT-2 (BATATA)        
1 41558U 16033C   23193.50790578  .00097220  00000+0  87955-3 0  9991
2 41558  97.4171 310.8496 0003183  26.7255 333.4170 15.67775168397932
CARTOSAT-2C             
1 41599U 16040A   23193.44299183  .00005557  00000+0  26685-3 0  9998
2 41599  97.4352 253.3097 0012488 257.9626 102.0209 15.19187082391143
LAPAN-A3                
1 41603U 16040E   23193.42783938  .00002482  00000+0  10955-3 0  9995
2 41603  97.1650 217.8258 0011405 220.7592 139.2793 15.22592369391332
BIROS                   
1 41604U 16040F   23193.34890242  .00006619  00000+0  23219-3 0  9997
2 41604  97.1619 228.0848 0010502 179.3271 180.7986 15.29701260391948
SWAYAM                  
1 41607U 16040J   23192.13916777  .00196744  00000+0  12151-2 0  9999
2 41607  97.1457 243.5345 0007482 165.7632 194.3847 15.76531889392777
BEESAT-4                
1 41619U 16040W   23192.90061981  .00109338  00000+0  10952-2 0  9995
2 41619  97.1542 242.7713 0007012 154.1719 205.9893 15.65168000380734
3CAT-2                  
1 41732U 16051B   23193.25046046  .00048052  00000+0  69864-3 0  9999
2 41732  97.3905 125.8977 0004665 344.4926  15.6184 15.55624780385378
PRATHAM                 
1 41783U 16059A   23192.08126940  .00000659  00000+0  13339-3 0  9992
2 41783  97.8672 222.1306 0033602  27.3502 332.9461 14.64006224362472
ALSAT 1N                
1 41789U 16059G   23193.34284035  .00000921  00000+0  17759-3 0  9990
2 41789  97.8664 228.7816 0027749   4.3818 355.7623 14.65483259362951
CARTOSAT-2D             
1 41948U 17008A   23192.74915101  .00004927  00000+0  23732-3 0  9998
2 41948  97.4756 251.6402 0005909  54.8652 305.3135 15.19195331354908
NAYIF-1 (EO-88)         
1 42017U 17008BX  23192.93363319  .01012217  54577-3  15727-2 0  9993
2 42017  97.2019 265.8099 0011384 247.3052 112.7026 16.04127487357401
ZHUHAI-1 02 (CAS-4B)    
1 42759U 17034B   23193.46181280  .00008369  00000+0  41630-3 0  9992
2 42759  43.0162 335.1380 0012165 266.1276  93.8182 15.17842613335474
ZHUHAI-1 01 (CAS-4A)    
1 42761U 17034D   23193.47785289  .00008159  00000+0  40600-3 0  9998
2 42761  43.0158 333.5762 0013046 267.3490  92.5865 15.17845210335489
UCLSAT                  
1 42765U 17036A   23193.13348713  .00060012  00000+0  91377-3 0  9997
2 42765  97.1396 231.9567 0003216  25.3966 334.7446 15.54311866337168
NIUSAT                  
1 42766U 17036B   23192.88634442  .00026925  00000+0  65953-3 0  9992
2 42766  97.1551 223.6553 0009381  27.0570 333.1164 15.40678941336416
CARTOSAT-2E             
1 42767U 17036C   23193.42452103  .00006059  00000+0  28953-3 0  9991
2 42767  97.4028 252.5340 0008351 104.5153 255.7008 15.19355626335578
AALTO-1                 
1 42775U 17036L   23193.57179626  .00017890  00000+0  50455-3 0  9999
2 42775  97.1508 222.8945 0009724  26.9065 131.6086 15.36414219336417
URSA MAIOR              
1 42776U 17036M   23192.98751798  .00020621  00000+0  54341-3 0  9994
2 42776  97.1518 223.7406 0009081  26.0444 334.1257 15.38497911336400
MAX VALIER SAT          
1 42778U 17036P   23192.34665289  .00020764  00000+0  52100-3 0  9994
2 42778  97.1530 226.6356 0007904  32.0482 328.1244 15.40010327336441
PEGASUS                 
1 42784U 17036V   23193.15979009  .00044310  00000+0  80559-3 0  9991
2 42784  97.1450 230.3024 0005321  22.9939 337.1550 15.49394528336840
SUCHAI                  
1 42788U 17036Z   23192.87061653  .00087779  00000+0  10110-2 0  9991
2 42788  97.1415 234.1927 0002198  24.0376 336.0985 15.61686046337143
SKCUBE                  
1 42789U 17036AA  23193.36436632  .00060630  00000+0  90301-3 0  9998
2 42789  97.1415 232.8677 0003829  17.4029 342.7356 15.54914457337029
ROBUSTA 1B              
1 42792U 17036AD  23193.39242990  .00083427  00000+0  10556-2 0  9999
2 42792  97.1397 234.2860 0001939  20.4664 339.6670 15.59231640337138
D-SAT                   
1 42794U 17036AF  23192.41892933  .00001639  00000+0  13332-3 0  9992
2 42794  97.4654 183.3564 0114977 219.6873 139.5895 14.95899145329580
NORSAT 2                
1 42828U 17042D   23192.53727302  .00003526  00000+0  31890-3 0  9993
2 42828  97.3933  31.9448 0013964 133.9965 226.2411 14.95955969326245
TECHNOSAT               
1 42829U 17042E   23193.51172408  .00002420  00000+0  23295-3 0  9996
2 42829  97.3888  29.4410 0014499 135.5275 224.7112 14.93754797326270
2017-042F               
1 42830U 17042F   23193.28628871  .00011645  00000+0  87003-3 0  9998
2 42830  97.4095  37.4058 0014405  98.0627 262.2234 15.02869328326642
FLYING LAPTOP           
1 42831U 17042G   23193.48780373  .00001771  00000+0  17430-3 0  9993
2 42831  97.3904  29.7065 0014503 136.6693 223.5671 14.93173412326268
CORVUS BC2              
1 42846U 17042X   23193.49869172  .00002995  00000+0  27955-3 0  9997
2 42846  97.3856  33.1998 0010391 122.6850 237.5375 14.94846943326505
CORVUS BC1              
1 42847U 17042Y   23192.81902183  .00002122  00000+0  19906-3 0  9992
2 42847  97.3851  32.9182 0009888 124.0841 236.1320 14.94935312326412
CZ-4C R/B               
1 43012U 17072C   23193.40083633  .00000426  00000+0  97005-4 0  9998
2 43012  98.6454 250.1956 0126001 203.3634 156.1807 14.56765133300627
RADFXSAT (FOX-1B)       
1 43017U 17073E   23193.16233066  .00007931  00000+0  55139-3 0  9993
2 43017  97.6281  76.5147 0231655 347.2592  12.2829 14.86525202304897
EAGLESAT 1              
1 43018U 17073F   23193.13772247  .00013304  00000+0  83530-3 0  9997
2 43018  97.6331  80.6271 0212292 334.0983  24.9728 14.92566484305019
INS-1C                  
1 43116U 18004F   23193.49993330  .00062959  00000+0  94299-3 0  9992
2 43116  97.3368 275.6870 0003245  54.1297 306.0258 15.54752459306303
FLOCK 3P'-2             
1 43120U 18004K   23193.48621947  .00296767  00000+0  18995-2 0  9992
2 43120  97.3259 272.6350 0004004 176.6037 183.5256 15.75460119306110
FLOCK 3P'-4             
1 43122U 18004M   23192.79686424  .00140983  00000+0  10632-2 0  9996
2 43122  97.3281 271.7825 0005577 186.0797 174.0399 15.72044908305986
PICSAT                  
1 43132U 18004X   23193.49981030  .00096424  00000+0  10548-2 0  9992
2 43132  97.3257 277.5687 0000991  16.4140 343.7151 15.62990311306498
CNUSAIL-1               
1 43133U 18004Y   23193.18475668  .00030285  00000+0  65348-3 0  9996
2 43133  97.3271 270.9089 0006210  62.0156 298.1720 15.44486199306053
2018-004Z               
1 43134U 18004Z   23193.20743088  .00055558  00000+0  84685-3 0  9999
2 43134  97.3288 274.7474 0003437  55.0605 305.0971 15.54300533306280
FOX-1D (AO-92)          
1 43137U 18004AC  23193.16705316  .00037003  00000+0  71122-3 0  9996
2 43137  97.3275 272.6603 0005265  63.4649 296.7141 15.47834694306166
XIAOXIANG-2             
1 43155U 18008A   23193.43030932  .00018718  00000+0  71763-3 0  9998
2 43155  97.2969 245.3568 0012419 211.4430 148.6068 15.26481379302506
ZHOU ENLAI              
1 43156U 18008B   23193.42980400  .00020217  00000+0  75946-3 0  9996
2 43156  97.3019 245.5106 0010137 210.4833 149.5818 15.27165743302435
QUANTUTONG 1            
1 43158U 18008D   23193.42154856  .00015179  00000+0  63295-3 0  9991
2 43158  97.3026 242.3201 0009964 214.7485 145.3103 15.23734837302266
S-NET D                 
1 43186U 18014G   23192.72265096  .00002899  00000+0  23342-3 0  9994
2 43186  97.6247  96.0627 0017489  87.4691 272.8535 15.00615484297232
S-NET B                 
1 43187U 18014H   23192.59052090  .00002973  00000+0  23923-3 0  9996
2 43187  97.6243  95.8594 0017907  85.4138 274.9130 15.00608462297218
S-NET A                 
1 43188U 18014J   23192.99068425  .00003103  00000+0  24943-3 0  9999
2 43188  97.6250  96.3414 0017903  84.4421 275.8845 15.00613836297274
S-NET C                 
1 43189U 18014K   23192.59301467  .00002984  00000+0  24009-3 0  9991
2 43189  97.6245  95.8374 0018596  80.5256 279.8069 15.00601395295761
SHAONIAN XING           
1 43199U 18015H   23192.71704909  .00388015  58662-4  12582-2 0  9991
2 43199  97.5382 354.9030 0002848 260.1785  99.9166 15.90760352303708
LUOJIA-1 01             
1 43485U 18048B   23193.49134540  .00001909  00000+0  26509-3 0  9996
2 43485  97.9056 273.1687 0011212  25.8524 334.3246 14.79001821275472
CZ-4B R/B               
1 43656U 18081B   23192.49404299  .00000307  00000+0  10924-3 0  9998
2 43656  99.4482   4.0182 0208256 107.3367 255.0709 14.30872339245983
CUBEBEL-1 (BSUSAT-1)    
1 43666U 18083E   23193.43285896  .00034109  00000+0  86211-3 0  9995
2 43666  97.3788 225.2058 0009191  45.5175 314.6821 15.39679777261083
CHANGSHAGAOXIN (TY 4-01)
1 43669U 18083H   23193.46223028  .00025449  00000+0  72951-3 0  9993
2 43669  97.3781 219.7231 0007577  50.0415 310.1493 15.35855864260820
TEN-KOH                 
1 43677U 18084G   23192.67617422  .00002655  00000+0  25948-3 0  9998
2 43677  98.0164 333.0189 0016352  70.2994 289.9987 14.93162388255719
DIWATA-2B               
1 43678U 18084H   23193.44742511  .00001234  00000+0  12283-3 0  9993
2 43678  98.0260 337.9306 0010859  79.9823 280.2621 14.93513648256038
STARS-AO                
1 43679U 18084J   23192.40036109  .00003274  00000+0  28936-3 0  9996
2 43679  98.0258 340.2631 0008903  84.2428 275.9807 14.97051507256055
AUTCUBE 2               
1 43681U 18084K   23193.38993273  .00002801  00000+0  25678-3 0  9996
2 43681  98.0227 339.1807 0009700  77.3600 282.8704 14.95720629256078
METOP-C                 
1 43689U 18087A   23193.46160398  .00000129  00000+0  78833-4 0  9993
2 43689  98.6817 252.5617 0002686  16.2666 343.8597 14.21500148242719
ES'HAIL 2               
1 43700U 18090A   23192.86855038  .00000144  00000+0  00000+0 0  9999
2 43700   0.0147 337.5191 0001891 176.0600 114.3969  1.00272518 17171
